{
  "type": "FeatureCollection",
  "generator": "overpass-turbo",
  "copyright": "The data included in this document is from www.openstreetmap.org. The data is made available under ODbL.",
  "timestamp": "2026-09-28T09:47:56Z",
  "features": [
    {
      "type": "Feature",
      "properties": {
        "@id": "relation/20420116",
        "admin_level": "7",
        "boundary": "administrative",
        "name": "เทศบาลตำบลท่าวังทอง",
        "name:en": "Tha Wang Thong Subdistrict Municipality",
        "name:th": "เทศบาลตำบลท่าวังทอง",
        "type": "boundary"
      },
      "geometry": {
        "type": "Polygon",
        "coordinates": [
          [
            [
              99.9193,
              19.1647
            ],
            [
              99.9193,
              19.1593
            ],
            [
              99.9221,
              19.1593
            ],
            [
              99.9224084,
              19.1591319
            ],
            [
              99.9224567,
              19.159266
            ],
            [
              99.9224428,
              19.1593964
            ],
            [
              99.9223535,
              19.1595068
            ],
            [
              99.9213329,
              19.1607686
            ],
            [
              99.9208222,
              19.1610504
            ],
            [
              99.9205551,
              19.1611814
            ],
            [
              99.9203592,
              19.1613334
            ],
            [
              99.9203244,
              19.1614778
            ],
            [
              99.9203914,
              19.1616172
            ],
            [
              99.9207138,
              19.1619027
            ],
            [
              99.921062,
              19.1620783
            ],
            [
              99.9213999,
              19.1620428
            ],
            [
              99.9217856,
              19.161848
            ],
            [
              99.9228671,
              19.1613791
            ],
            [
              99.9229878,
              19.1612929
            ],
            [
              99.9230736,
              19.1611941
            ],
            [
              99.9233204,
              19.1608571
            ],
            [
              99.9234599,
              19.1606747
            ],
            [
              99.9235886,
              19.1606318
            ],
            [
              99.9237455,
              19.1606924
            ],
            [
              99.9238247,
              19.1608064
            ],
            [
              99.9239936,
              19.1612267
            ],
            [
              99.9245794,
              19.1625999
            ],
            [
              99.9246937,
              19.1626737
            ],
            [
              99.9248761,
              19.1627472
            ],
            [
              99.9253927,
              19.1628736
            ],
            [
              99.925729,
              19.1628941
            ],
            [
              99.9258578,
              19.1628916
            ],
            [
              99.9259774,
              19.1628118
            ],
            [
              99.9259758,
              19.1624178
            ],
            [
              99.9258256,
              19.1619972
            ],
            [
              99.9257961,
              19.1618199
            ],
            [
              99.9258685,
              19.1616476
            ],
            [
              99.9260697,
              19.1615513
            ],
            [
              99.9263212,
              19.1614988
            ],
            [
              99.9266967,
              19.161619
            ],
            [
              99.9271072,
              19.1621297
            ],
            [
              99.9272284,
              19.1623469
            ],
            [
              99.9273104,
              19.1625995
            ],
            [
              99.9272633,
              19.1628612
            ],
            [
              99.9271618,
              19.1631117
            ],
            [
              99.9269763,
              19.163302
            ],
            [
              99.926686,
              19.1634904
            ],
            [
              99.9250211,
              19.1639801
            ],
            [
              99.9248117,
              19.1641609
            ],
            [
              99.9247661,
              19.1642901
            ],
            [
              99.924801,
              19.1644143
            ],
            [
              99.9249138,
              19.1646841
            ],
            [
              99.9251658,
              19.1649007
            ],
            [
              99.9255751,
              19.1650235
            ],
            [
              99.926185,
              19.164921
            ],
            [
              99.9270433,
              19.1646474
            ],
            [
              99.9272498,
              19.1646752
            ],
            [
              99.9277836,
              19.1648298
            ],
            [
              99.9281645,
              19.1648754
            ],
            [
              99.9283603,
              19.164845
            ],
            [
              99.9285183,
              19.1647424
            ],
            [
              99.9287975,
              19.1640748
            ],
            [
              99.9288833,
              19.1639684
            ],
            [
              99.9289745,
              19.1638974
            ],
            [
              99.9292718,
              19.1638991
            ],
            [
              99.9301661,
              19.1640544
            ],
            [
              99.9312061,
              19.1641052
            ],
            [
              99.9319812,
              19.1641407
            ],
            [
              99.9320376,
              19.1642242
            ],
            [
              99.9320322,
              19.1643433
            ],
            [
              99.9318767,
              19.1646017
            ],
            [
              99.9315548,
              19.1650527
            ],
            [
              99.9312437,
              19.1653871
            ],
            [
              99.9311069,
              19.1655012
            ],
            [
              99.9308923,
              19.1655899
            ],
            [
              99.9306723,
              19.1655417
            ],
            [
              99.9303988,
              19.1653643
            ],
            [
              99.9302566,
              19.165225
            ],
            [
              99.9301815,
              19.1651718
            ],
            [
              99.9300733,
              19.1651593
            ],
            [
              99.9299964,
              19.1653035
            ],
            [
              99.9300152,
              19.1654885
            ],
            [
              99.9300581,
              19.1658837
            ],
            [
              99.930219,
              19.166279
            ],
            [
              99.9302888,
              19.1664968
            ],
            [
              99.9304765,
              19.1665931
            ],
            [
              99.9309976,
              19.1664157
            ],
            [
              99.9321341,
              19.1658331
            ],
            [
              99.9337125,
              19.1653685
            ],
            [
              99.93406,
              19.1654226
            ],
            [
              99.9341941,
              19.1655594
            ],
            [
              99.934452,
              19.166007
            ],
            [
              99.9344408,
              19.167191
            ],
            [
              99.9344596,
              19.1673836
            ],
            [
              99.9345745,
              19.1675824
            ],
            [
              99.9349999,
              19.1679285
            ],
            [
              99.9350765,
              19.1680296
            ],
            [
              99.9350953,
              19.1681639
            ],
            [
              99.9350202,
              19.1684071
            ],
            [
              99.9348217,
              19.1689442
            ],
            [
              99.9346501,
              19.1695497
            ],
            [
              99.9345593,
              19.1701969
            ],
            [
              99.934414,
              19.1702718
            ],
            [
              99.9342155,
              19.1702768
            ],
            [
              99.93372,
              19.1700205
            ],
            [
              99.9333277,
              19.1695334
            ],
            [
              99.9330579,
              19.1695502
            ],
            [
              99.9329066,
              19.16976
            ],
            [
              99.9328396,
              19.1698867
            ],
            [
              99.9328422,
              19.1700235
            ],
            [
              99.9328369,
              19.1701603
            ],
            [
              99.932938,
              19.1703261
            ],
            [
              99.9334618,
              19.1707227
            ],
            [
              99.9340492,
              19.1710419
            ],
            [
              99.935132,
              19.171599
            ],
            [
              99.935841,
              19.1717564
            ],
            [
              99.936474,
              19.1717665
            ],
            [
              99.9366295,
              19.1719388
            ],
            [
              99.9366778,
              19.1721313
            ],
            [
              99.9366832,
              19.1723897
            ],
            [
              99.9365437,
              19.172638
            ],
            [
              99.9362326,
              19.1732224
            ],
            [
              99.9362218,
              19.1734284
            ],
            [
              99.9362674,
              19.1736311
            ],
            [
              99.9364352,
              19.1740475
            ],
            [
              99.9363881,
              19.1742543
            ],
            [
              99.9362808,
              19.1744697
            ],
            [
              99.9361306,
              19.1746825
            ],
            [
              99.9360824,
              19.1747889
            ],
            [
              99.9360794,
              19.1748922
            ],
            [
              99.9360864,
              19.1749459
            ],
            [
              99.9361467,
              19.174989
            ],
            [
              99.9362326,
              19.175027
            ],
            [
              99.9363819,
              19.1750471
            ],
            [
              99.9365531,
              19.1750498
            ],
            [
              99.9368656,
              19.1750346
            ],
            [
              99.9369675,
              19.1750536
            ],
            [
              99.937048,
              19.1750751
            ],
            [
              99.9371499,
              19.1751613
            ],
            [
              99.9373323,
              19.1754653
            ],
            [
              99.9374101,
              19.1760024
            ],
            [
              99.9375147,
              19.1762861
            ],
            [
              99.9376675,
              19.1765673
            ],
            [
              99.9378017,
              19.1767142
            ],
            [
              99.9379814,
              19.1768587
            ],
            [
              99.9381208,
              19.176884
            ],
            [
              99.938373,
              19.1768536
            ],
            [
              99.9394596,
              19.1768136
            ],
            [
              99.9398991,
              19.1769726
            ],
            [
              99.9400359,
              19.1770892
            ],
            [
              99.9401244,
              19.1772133
            ],
            [
              99.9401459,
              19.1773983
            ],
            [
              99.9400926,
              19.1775801
            ],
            [
              99.9395907,
              19.1779277
            ],
            [
              99.9395113,
              19.178041
            ],
            [
              99.9392989,
              19.1786733
            ],
            [
              99.939327,
              19.1789114
            ],
            [
              99.9398765,
              19.1796566
            ],
            [
              99.9401754,
              19.1803395
            ],
            [
              99.9403732,
              19.1806777
            ],
            [
              99.9406663,
              19.1809728
            ],
            [
              99.9409023,
              19.1812641
            ],
            [
              99.940973,
              19.1816051
            ],
            [
              99.9405348,
              19.1828348
            ],
            [
              99.9403572,
              19.1840767
            ],
            [
              99.940221,
              19.1844839
            ],
            [
              99.9399877,
              19.1849095
            ],
            [
              99.9394062,
              19.1857211
            ],
            [
              99.9393064,
              19.1860191
            ],
            [
              99.9394634,
              19.1861886
            ],
            [
              99.9397007,
              19.1864446
            ],
            [
              99.9399635,
              19.1866118
            ],
            [
              99.9403203,
              19.1866549
            ],
            [
              99.9404233,
              19.1865441
            ],
            [
              99.9418382,
              19.1856097
            ],
            [
              99.942289,
              19.1855048
            ],
            [
              99.9426699,
              19.1854567
            ],
            [
              99.9428308,
              19.1854668
            ],
            [
              99.9429946,
              19.1855296
            ],
            [
              99.9433565,
              19.1858493
            ],
            [
              99.9436757,
              19.1862116
            ],
            [
              99.9442852,
              19.1870133
            ],
            [
              99.9452341,
              19.1874858
            ],
            [
              99.9459207,
              19.1881622
            ],
            [
              99.9475002,
              19.1892301
            ],
            [
              99.9483776,
              19.1891754
            ],
            [
              99.948855,
              19.1892109
            ],
            [
              99.9491957,
              19.1893855
            ],
            [
              99.9495951,
              19.1898396
            ],
            [
              99.9492305,
              19.1906649
            ],
            [
              99.9489945,
              19.1916579
            ],
            [
              99.9493647,
              19.1919923
            ],
            [
              99.9496704,
              19.1922406
            ],
            [
              99.9497241,
              19.1924736
            ],
            [
              99.94937,
              19.1928941
            ],
            [
              99.9490964,
              19.1931272
            ],
            [
              99.9490428,
              19.1932437
            ],
            [
              99.9489999,
              19.1933957
            ],
            [
              99.9490568,
              19.1935522
            ],
            [
              99.9492211,
              19.1937113
            ],
            [
              99.9495953,
              19.1939377
            ],
            [
              99.9499601,
              19.1940314
            ],
            [
              99.9504111,
              19.1940495
            ],
            [
              99.9508647,
              19.1939916
            ],
            [
              99.95202,
              19.193654
            ],
            [
              99.9524644,
              19.1935937
            ],
            [
              99.9529195,
              19.1936245
            ],
            [
              99.9548385,
              19.1943291
            ],
            [
              99.9554747,
              19.1943127
            ],
            [
              99.9563462,
              19.1939461
            ],
            [
              99.9566656,
              19.1937402
            ],
            [
              99.957068,
              19.1937047
            ],
            [
              99.9576688,
              19.1939681
            ],
            [
              99.9580604,
              19.1943329
            ],
            [
              99.9581623,
              19.1948193
            ],
            [
              99.958334,
              19.1950472
            ],
            [
              99.9588597,
              19.1952144
            ],
            [
              99.9593103,
              19.1952651
            ],
            [
              99.9594605,
              19.195564
            ],
            [
              99.9595302,
              19.195792
            ],
            [
              99.9594551,
              19.19602
            ],
            [
              99.9591823,
              19.1964057
            ],
            [
              99.9586719,
              19.1966684
            ],
            [
              99.9584252,
              19.1968863
            ],
            [
              99.958334,
              19.1971446
            ],
            [
              99.9584627,
              19.1974081
            ],
            [
              99.9594551,
              19.198016
            ],
            [
              99.9594927,
              19.1983402
            ],
            [
              99.9594283,
              19.1987405
            ],
            [
              99.9594342,
              19.1992595
            ],
            [
              99.9596375,
              19.1994497
            ],
            [
              99.9601257,
              19.1994345
            ],
            [
              99.9607694,
              19.199242
            ],
            [
              99.9614292,
              19.1989482
            ],
            [
              99.9617696,
              19.1985682
            ],
            [
              99.962073,
              19.1978488
            ],
            [
              99.9622929,
              19.197636
            ],
            [
              99.9625795,
              19.1975384
            ],
            [
              99.9652419,
              19.1987243
            ],
            [
              99.9654043,
              19.1990799
            ],
            [
              99.965275,
              19.1994426
            ],
            [
              99.9647387,
              19.2002994
            ],
            [
              99.9648035,
              19.2004984
            ],
            [
              99.9650609,
              19.2007821
            ],
            [
              99.965897,
              19.2015317
            ],
            [
              99.9660972,
              19.2031286
            ],
            [
              99.965989,
              19.2033454
            ],
            [
              99.9656993,
              19.2035177
            ],
            [
              99.9649376,
              19.2037609
            ],
            [
              99.9646962,
              19.2041205
            ],
            [
              99.9647605,
              19.2048956
            ],
            [
              99.9647658,
              19.2050437
            ],
            [
              99.9647416,
              19.205088
            ],
            [
              99.9647054,
              19.2051541
            ],
            [
              99.9646415,
              19.205271
            ],
            [
              99.9645933,
              19.2053837
            ],
            [
              99.9645047,
              19.2056459
            ],
            [
              99.9644904,
              19.2056922
            ],
            [
              99.9644885,
              19.2057833
            ],
            [
              99.9644902,
              19.2058
            ],
            [
              99.9645082,
              19.2058688
            ],
            [
              99.9645211,
              19.2059179
            ],
            [
              99.9645311,
              19.2059679
            ],
            [
              99.964545,
              19.2060376
            ],
            [
              99.9646028,
              19.2062378
            ],
            [
              99.964682,
              19.2064619
            ],
            [
              99.9646892,
              19.2064824
            ],
            [
              99.964778,
              19.2066991
            ],
            [
              99.9647756,
              19.2067334
            ],
            [
              99.9647527,
              19.2067775
            ],
            [
              99.9646203,
              19.2068766
            ],
            [
              99.9645169,
              19.2069671
            ],
            [
              99.9644505,
              19.2070506
            ],
            [
              99.9643867,
              19.2071536
            ],
            [
              99.9643484,
              19.2072028
            ],
            [
              99.9642716,
              19.2072814
            ],
            [
              99.9642206,
              19.2073551
            ],
            [
              99.9641391,
              19.2075071
            ],
            [
              99.9640859,
              19.2076664
            ],
            [
              99.9640477,
              19.2077302
            ],
            [
              99.9640171,
              19.2077768
            ],
            [
              99.963943,
              19.2078701
            ],
            [
              99.9639099,
              19.2079388
            ],
            [
              99.9638765,
              19.2080257
            ],
            [
              99.963844,
              19.2081103
            ],
            [
              99.9638292,
              19.2082278
            ],
            [
              99.9638098,
              19.2084358
            ],
            [
              99.9638134,
              19.2086045
            ],
            [
              99.9638142,
              19.2087463
            ],
            [
              99.9638071,
              19.2088467
            ],
            [
              99.963777,
              19.2089911
            ],
            [
              99.9637076,
              19.2091905
            ],
            [
              99.9636985,
              19.2092165
            ],
            [
              99.9636448,
              19.2092853
            ],
            [
              99.9635564,
              19.2093774
            ],
            [
              99.963351,
              19.2094528
            ],
            [
              99.96321,
              19.2095342
            ],
            [
              99.9631945,
              19.2095626
            ],
            [
              99.9631846,
              19.2096099
            ],
            [
              99.9631799,
              19.2096461
            ],
            [
              99.963167,
              19.2097456
            ],
            [
              99.9631491,
              19.2098743
            ],
            [
              99.9631375,
              19.2099008
            ],
            [
              99.9631177,
              19.2099308
            ],
            [
              99.9629197,
              19.210103
            ],
            [
              99.962908,
              19.2101284
            ],
            [
              99.9629058,
              19.2101743
            ],
            [
              99.9629185,
              19.2102156
            ],
            [
              99.9629491,
              19.2102653
            ],
            [
              99.9629574,
              19.2103303
            ],
            [
              99.9629564,
              19.2103763
            ],
            [
              99.9629397,
              19.2104706
            ],
            [
              99.9628997,
              19.21055
            ],
            [
              99.9628121,
              19.210586
            ],
            [
              99.9626837,
              19.2106056
            ],
            [
              99.9625954,
              19.2106441
            ],
            [
              99.9625387,
              19.2107312
            ],
            [
              99.9625108,
              19.2108399
            ],
            [
              99.9624452,
              19.2108647
            ],
            [
              99.9623994,
              19.2108405
            ],
            [
              99.9623538,
              19.2107586
            ],
            [
              99.9622541,
              19.2106732
            ],
            [
              99.9622347,
              19.2106645
            ],
            [
              99.9621766,
              19.2106513
            ],
            [
              99.962079,
              19.2106489
            ],
            [
              99.9620329,
              19.2107161
            ],
            [
              99.9620106,
              19.2107569
            ],
            [
              99.9619953,
              19.2107998
            ],
            [
              99.9619674,
              19.2108482
            ],
            [
              99.9618055,
              19.2109249
            ],
            [
              99.9616214,
              19.2109807
            ],
            [
              99.9615991,
              19.2110061
            ],
            [
              99.9615879,
              19.2110613
            ],
            [
              99.9615705,
              19.2112757
            ],
            [
              99.9615103,
              19.2112848
            ],
            [
              99.9614812,
              19.2112781
            ],
            [
              99.9613649,
              19.2112357
            ],
            [
              99.9612994,
              19.2111958
            ],
            [
              99.9612344,
              19.2111298
            ],
            [
              99.9611868,
              19.2111098
            ],
            [
              99.9611357,
              19.2111071
            ],
            [
              99.9610711,
              19.2111117
            ],
            [
              99.9609871,
              19.211122
            ],
            [
              99.9608013,
              19.2111013
            ],
            [
              99.9606155,
              19.2110751
            ],
            [
              99.9605295,
              19.2110348
            ],
            [
              99.9604838,
              19.2110351
            ],
            [
              99.960454,
              19.2110741
            ],
            [
              99.9604457,
              19.2110971
            ],
            [
              99.9604414,
              19.2111668
            ],
            [
              99.9604284,
              19.2112351
            ],
            [
              99.960411,
              19.211272
            ],
            [
              99.96035,
              19.2113481
            ],
            [
              99.9602976,
              19.2114219
            ],
            [
              99.9602068,
              19.211512
            ],
            [
              99.9601727,
              19.2115654
            ],
            [
              99.9601688,
              19.2115903
            ],
            [
              99.9601839,
              19.2116212
            ],
            [
              99.9602133,
              19.2116433
            ],
            [
              99.9602568,
              19.2116577
            ],
            [
              99.960304,
              19.2116858
            ],
            [
              99.9603005,
              19.2117082
            ],
            [
              99.9602673,
              19.2117574
            ],
            [
              99.9602278,
              19.2118057
            ],
            [
              99.9602074,
              19.2118746
            ],
            [
              99.9601968,
              19.2119177
            ],
            [
              99.9601752,
              19.211941
            ],
            [
              99.9601327,
              19.2119498
            ],
            [
              99.9600719,
              19.2119261
            ],
            [
              99.9599683,
              19.2118509
            ],
            [
              99.9598913,
              19.2118307
            ],
            [
              99.9598596,
              19.2118309
            ],
            [
              99.9598289,
              19.2118413
            ],
            [
              99.959803,
              19.211868
            ],
            [
              99.9597881,
              19.2119048
            ],
            [
              99.9597658,
              19.2119784
            ],
            [
              99.9597449,
              19.2120256
            ],
            [
              99.9596782,
              19.2121168
            ],
            [
              99.9595338,
              19.2122807
            ],
            [
              99.9594394,
              19.2123401
            ],
            [
              99.9593676,
              19.2122907
            ],
            [
              99.9593598,
              19.2122793
            ],
            [
              99.959348,
              19.2122472
            ],
            [
              99.9593491,
              19.2122058
            ],
            [
              99.9593866,
              19.2121137
            ],
            [
              99.9593954,
              19.2120815
            ],
            [
              99.9593911,
              19.212047
            ],
            [
              99.9593806,
              19.2120241
            ],
            [
              99.9593471,
              19.2120057
            ],
            [
              99.9592898,
              19.2119974
            ],
            [
              99.9591172,
              19.2119957
            ],
            [
              99.9589545,
              19.2119819
            ],
            [
              99.9588661,
              19.211936
            ],
            [
              99.9588348,
              19.2118937
            ],
            [
              99.9588254,
              19.2118754
            ],
            [
              99.9588161,
              19.2118065
            ],
            [
              99.9587964,
              19.2117652
            ],
            [
              99.9587038,
              19.2116118
            ],
            [
              99.9586522,
              19.2115477
            ],
            [
              99.9585811,
              19.2113964
            ],
            [
              99.9585507,
              19.2113495
            ],
            [
              99.9584682,
              19.2112465
            ],
            [
              99.9584394,
              19.2112019
            ],
            [
              99.9583932,
              19.2111515
            ],
            [
              99.9583314,
              19.2111136
            ],
            [
              99.9580993,
              19.2110103
            ],
            [
              99.957961,
              19.2108972
            ],
            [
              99.9579379,
              19.2108296
            ],
            [
              99.9579022,
              19.2108052
            ],
            [
              99.9577325,
              19.2107262
            ],
            [
              99.9577024,
              19.2107154
            ],
            [
              99.9576734,
              19.210718
            ],
            [
              99.9576092,
              19.2107425
            ],
            [
              99.9575701,
              19.2107647
            ],
            [
              99.9575093,
              19.2107826
            ],
            [
              99.9574372,
              19.2107872
            ],
            [
              99.9573888,
              19.2107819
            ],
            [
              99.9573185,
              19.2107517
            ],
            [
              99.9572774,
              19.2107447
            ],
            [
              99.9570598,
              19.2107612
            ],
            [
              99.9569945,
              19.2107732
            ],
            [
              99.9569608,
              19.2107929
            ],
            [
              99.9568958,
              19.2109234
            ],
            [
              99.9568649,
              19.2109428
            ],
            [
              99.9568239,
              19.2109539
            ],
            [
              99.9567088,
              19.2109619
            ],
            [
              99.9566266,
              19.2109743
            ],
            [
              99.9565686,
              19.2109839
            ],
            [
              99.9565203,
              19.2109963
            ],
            [
              99.9564115,
              19.2110071
            ],
            [
              99.9562857,
              19.2109937
            ],
            [
              99.9562209,
              19.210983
            ],
            [
              99.9561265,
              19.210947
            ],
            [
              99.9560956,
              19.210891
            ],
            [
              99.9560926,
              19.2108594
            ],
            [
              99.9560987,
              19.2108304
            ],
            [
              99.9561142,
              19.2107889
            ],
            [
              99.9561654,
              19.2106898
            ],
            [
              99.9561874,
              19.2106375
            ],
            [
              99.95618,
              19.2105464
            ],
            [
              99.9559099,
              19.2104516
            ],
            [
              99.9556811,
              19.2103376
            ],
            [
              99.9556154,
              19.2103084
            ],
            [
              99.9555235,
              19.2102754
            ],
            [
              99.9554397,
              19.210262
            ],
            [
              99.9552227,
              19.2102722
            ],
            [
              99.9551644,
              19.210259
            ],
            [
              99.9550354,
              19.2101236
            ],
            [
              99.9549192,
              19.2099939
            ],
            [
              99.9549087,
              19.2099779
            ],
            [
              99.9548867,
              19.209884
            ],
            [
              99.9548833,
              19.2098357
            ],
            [
              99.954885,
              19.2098093
            ],
            [
              99.954908,
              19.2097389
            ],
            [
              99.9549287,
              19.2096554
            ],
            [
              99.954928,
              19.2094885
            ],
            [
              99.9549391,
              19.2093767
            ],
            [
              99.9550182,
              19.2093439
            ],
            [
              99.9550795,
              19.2093071
            ],
            [
              99.9551149,
              19.2092437
            ],
            [
              99.9551044,
              19.2091975
            ],
            [
              99.9550105,
              19.2091058
            ],
            [
              99.954856,
              19.2089435
            ],
            [
              99.9547952,
              19.208861
            ],
            [
              99.9547181,
              19.2088055
            ],
            [
              99.9546643,
              19.2088057
            ],
            [
              99.954567,
              19.2088087
            ],
            [
              99.9544852,
              19.2088261
            ],
            [
              99.9543881,
              19.2088656
            ],
            [
              99.9542862,
              19.2089512
            ],
            [
              99.954184,
              19.2089834
            ],
            [
              99.9541249,
              19.2089642
            ],
            [
              99.9540555,
              19.2089111
            ],
            [
              99.9539963,
              19.2088627
            ],
            [
              99.9538706,
              19.2088245
            ],
            [
              99.953735,
              19.2088325
            ],
            [
              99.9536708,
              19.208806
            ],
            [
              99.9536364,
              19.2087603
            ],
            [
              99.9535419,
              19.2086039
            ],
            [
              99.9534561,
              19.2085552
            ],
            [
              99.9533865,
              19.2085351
            ],
            [
              99.9531516,
              19.2084822
            ],
            [
              99.953074,
              19.2084745
            ],
            [
              99.952975,
              19.2084827
            ],
            [
              99.9528891,
              19.2085145
            ],
            [
              99.952853,
              19.2085441
            ],
            [
              99.9528434,
              19.208558
            ],
            [
              99.952784,
              19.2085954
            ],
            [
              99.9527495,
              19.208601
            ],
            [
              99.9527055,
              19.2085938
            ],
            [
              99.9526086,
              19.2085311
            ],
            [
              99.9525568,
              19.2084477
            ],
            [
              99.9525494,
              19.2084289
            ],
            [
              99.9525132,
              19.208271
            ],
            [
              99.9524963,
              19.2082573
            ],
            [
              99.9524254,
              19.2082167
            ],
            [
              99.9521127,
              19.2080902
            ],
            [
              99.9520013,
              19.2080631
            ],
            [
              99.9518851,
              19.2080479
            ],
            [
              99.9518581,
              19.2080067
            ],
            [
              99.9518495,
              19.2079585
            ],
            [
              99.9518643,
              19.2078929
            ],
            [
              99.9518458,
              19.2078595
            ],
            [
              99.9518077,
              19.2078453
            ],
            [
              99.9516836,
              19.2078531
            ],
            [
              99.951567,
              19.2078561
            ],
            [
              99.9514303,
              19.2078737
            ],
            [
              99.951309,
              19.2079393
            ],
            [
              99.951218,
              19.208029
            ],
            [
              99.9512001,
              19.2080729
            ],
            [
              99.9512434,
              19.2081486
            ],
            [
              99.9512674,
              19.2082545
            ],
            [
              99.9512635,
              19.2083447
            ],
            [
              99.9512543,
              19.2083924
            ],
            [
              99.9512274,
              19.2084419
            ],
            [
              99.9511729,
              19.2084997
            ],
            [
              99.9510971,
              19.208547
            ],
            [
              99.9510491,
              19.2085641
            ],
            [
              99.9510214,
              19.2086004
            ],
            [
              99.9510267,
              19.2086413
            ],
            [
              99.9510878,
              19.2086915
            ],
            [
              99.9511894,
              19.2087199
            ],
            [
              99.9512301,
              19.2087534
            ],
            [
              99.9512279,
              19.2088184
            ],
            [
              99.9511826,
              19.2088619
            ],
            [
              99.9511067,
              19.2088864
            ],
            [
              99.9510485,
              19.2088939
            ],
            [
              99.9510038,
              19.2089325
            ],
            [
              99.9510154,
              19.2090266
            ],
            [
              99.9510792,
              19.20922
            ],
            [
              99.9510814,
              19.2093351
            ],
            [
              99.9510988,
              19.2093843
            ],
            [
              99.9512014,
              19.2094497
            ],
            [
              99.9512149,
              19.2094781
            ],
            [
              99.9512018,
              19.2095131
            ],
            [
              99.9510987,
              19.2095905
            ],
            [
              99.9510515,
              19.2096212
            ],
            [
              99.9508513,
              19.2097404
            ],
            [
              99.9508123,
              19.2097529
            ],
            [
              99.95079,
              19.2097562
            ],
            [
              99.9507593,
              19.2097551
            ],
            [
              99.9507088,
              19.20974
            ],
            [
              99.9506446,
              19.2097026
            ],
            [
              99.950587,
              19.2095931
            ],
            [
              99.950537,
              19.2095192
            ],
            [
              99.9505178,
              19.2095161
            ],
            [
              99.9504386,
              19.2095175
            ],
            [
              99.9503925,
              19.2095331
            ],
            [
              99.9503268,
              19.2095637
            ],
            [
              99.9502923,
              19.2095754
            ],
            [
              99.9502391,
              19.2095861
            ],
            [
              99.9501167,
              19.2095904
            ],
            [
              99.9500279,
              19.2095804
            ],
            [
              99.9499671,
              19.209566
            ],
            [
              99.9499035,
              19.2095745
            ],
            [
              99.9498106,
              19.2097776
            ],
            [
              99.9497822,
              19.209884
            ],
            [
              99.9497854,
              19.2099384
            ],
            [
              99.9497992,
              19.2099711
            ],
            [
              99.9498705,
              19.2100954
            ],
            [
              99.9499119,
              19.2101858
            ],
            [
              99.9499144,
              19.2102726
            ],
            [
              99.9498876,
              19.2103362
            ],
            [
              99.9498171,
              19.210376
            ],
            [
              99.9496973,
              19.2104097
            ],
            [
              99.949555,
              19.2104022
            ],
            [
              99.9494688,
              19.2103786
            ],
            [
              99.9493845,
              19.2103463
            ],
            [
              99.9492644,
              19.2103237
            ],
            [
              99.9491751,
              19.2103181
            ],
            [
              99.9490217,
              19.2103171
            ],
            [
              99.9489659,
              19.2103234
            ],
            [
              99.9489091,
              19.2103391
            ],
            [
              99.9488286,
              19.2103737
            ],
            [
              99.9487822,
              19.2104085
            ],
            [
              99.9487036,
              19.210483
            ],
            [
              99.9486712,
              19.2105076
            ],
            [
              99.9486322,
              19.2105277
            ],
            [
              99.9485431,
              19.2105497
            ],
            [
              99.9484734,
              19.210555
            ],
            [
              99.948406,
              19.2105675
            ],
            [
              99.9483759,
              19.2105802
            ],
            [
              99.9483234,
              19.2106141
            ],
            [
              99.9482785,
              19.2106719
            ],
            [
              99.9482623,
              19.2107068
            ],
            [
              99.9482598,
              19.2107768
            ],
            [
              99.9482838,
              19.2109172
            ],
            [
              99.9482813,
              19.2109622
            ],
            [
              99.948248,
              19.2110241
            ],
            [
              99.9481721,
              19.2110434
            ],
            [
              99.948116,
              19.2110429
            ],
            [
              99.9480772,
              19.2110385
            ],
            [
              99.9480353,
              19.2110265
            ],
            [
              99.9479794,
              19.2109955
            ],
            [
              99.9479279,
              19.210987
            ],
            [
              99.9478872,
              19.2109902
            ],
            [
              99.94763,
              19.2110394
            ],
            [
              99.9474802,
              19.2110427
            ],
            [
              99.9474299,
              19.2110337
            ],
            [
              99.9473606,
              19.2110043
            ],
            [
              99.9472648,
              19.2109476
            ],
            [
              99.947192,
              19.2108957
            ],
            [
              99.9471528,
              19.2108761
            ],
            [
              99.9471221,
              19.2108764
            ],
            [
              99.9470677,
              19.2108867
            ],
            [
              99.9469731,
              19.2109902
            ],
            [
              99.9469172,
              19.21107
            ],
            [
              99.9469077,
              19.2111007
            ],
            [
              99.9468993,
              19.211152
            ],
            [
              99.946895,
              19.2112079
            ],
            [
              99.9469094,
              19.2112953
            ],
            [
              99.9469091,
              19.2113457
            ],
            [
              99.9469043,
              19.2113814
            ],
            [
              99.9468906,
              19.2114333
            ],
            [
              99.9468209,
              19.2115147
            ],
            [
              99.9466772,
              19.2116041
            ],
            [
              99.9465934,
              19.2116559
            ],
            [
              99.9464945,
              19.2116849
            ],
            [
              99.9464437,
              19.2117166
            ],
            [
              99.946435,
              19.2117737
            ],
            [
              99.9464533,
              19.2118192
            ],
            [
              99.9466159,
              19.2119096
            ],
            [
              99.9466883,
              19.2119691
            ],
            [
              99.9467185,
              19.2119975
            ],
            [
              99.9467045,
              19.2120621
            ],
            [
              99.9466043,
              19.2121327
            ],
            [
              99.9465727,
              19.2121508
            ],
            [
              99.946519,
              19.2121816
            ],
            [
              99.9464852,
              19.2121943
            ],
            [
              99.9463894,
              19.2122204
            ],
            [
              99.9463091,
              19.2122315
            ],
            [
              99.9462264,
              19.2122135
            ],
            [
              99.9461783,
              19.2121991
            ],
            [
              99.945991,
              19.2121201
            ],
            [
              99.9459658,
              19.2121126
            ],
            [
              99.9459128,
              19.2121068
            ],
            [
              99.9458766,
              19.2121186
            ],
            [
              99.945832,
              19.2121386
            ],
            [
              99.9457447,
              19.2121652
            ],
            [
              99.9456851,
              19.2121745
            ],
            [
              99.9456118,
              19.2121705
            ],
            [
              99.94559,
              19.212165
            ],
            [
              99.9454516,
              19.2121071
            ],
            [
              99.945349,
              19.21208
            ],
            [
              99.9453364,
              19.2120794
            ],
            [
              99.9452655,
              19.2120984
            ],
            [
              99.945193,
              19.212139
            ],
            [
              99.9451545,
              19.2121676
            ],
            [
              99.945104,
              19.2122071
            ],
            [
              99.945056,
              19.2122244
            ],
            [
              99.945008,
              19.2122228
            ],
            [
              99.9449592,
              19.2122015
            ],
            [
              99.9448998,
              19.2121828
            ],
            [
              99.9448584,
              19.2121843
            ],
            [
              99.9447999,
              19.2121976
            ],
            [
              99.9447457,
              19.2122577
            ],
            [
              99.9447248,
              19.2123018
            ],
            [
              99.9447159,
              19.2123339
            ],
            [
              99.9447132,
              19.212404
            ],
            [
              99.9447168,
              19.212427
            ],
            [
              99.9447316,
              19.2124657
            ],
            [
              99.9447783,
              19.2125456
            ],
            [
              99.9448847,
              19.212623
            ],
            [
              99.945005,
              19.2126595
            ],
            [
              99.9450832,
              19.2126904
            ],
            [
              99.9451195,
              19.2127273
            ],
            [
              99.9451349,
              19.2127957
            ],
            [
              99.9451017,
              19.2128545
            ],
            [
              99.9450468,
              19.2128879
            ],
            [
              99.9449686,
              19.2129131
            ],
            [
              99.9449102,
              19.2129179
            ],
            [
              99.94486,
              19.2129092
            ],
            [
              99.9447257,
              19.2128556
            ],
            [
              99.9446755,
              19.212858
            ],
            [
              99.9446254,
              19.2128769
            ],
            [
              99.9445622,
              19.2129143
            ],
            [
              99.9444666,
              19.2129852
            ],
            [
              99.9443825,
              19.2131284
            ],
            [
              99.9443136,
              19.2132295
            ],
            [
              99.9441617,
              19.2133029
            ],
            [
              99.9440489,
              19.2133686
            ],
            [
              99.944031,
              19.2134203
            ],
            [
              99.9440201,
              19.2135409
            ],
            [
              99.9440221,
              19.2137702
            ],
            [
              99.9440266,
              19.2138087
            ],
            [
              99.9440653,
              19.2138897
            ],
            [
              99.9441928,
              19.2139302
            ],
            [
              99.9443386,
              19.2139504
            ],
            [
              99.9443956,
              19.2139444
            ],
            [
              99.9444111,
              19.2139387
            ],
            [
              99.9445222,
              19.2138709
            ],
            [
              99.9445862,
              19.2138242
            ],
            [
              99.9446973,
              19.2137314
            ],
            [
              99.9448374,
              19.2136787
            ],
            [
              99.9448997,
              19.2137327
            ],
            [
              99.944907,
              19.2137697
            ],
            [
              99.944887,
              19.2138242
            ],
            [
              99.9448544,
              19.2138918
            ],
            [
              99.9448184,
              19.2139491
            ],
            [
              99.9447873,
              19.2140076
            ],
            [
              99.9447298,
              19.2140913
            ],
            [
              99.9446578,
              19.2141416
            ],
            [
              99.9445826,
              19.2141718
            ],
            [
              99.9444488,
              19.2141916
            ],
            [
              99.9444125,
              19.2141872
            ],
            [
              99.944365,
              19.2141724
            ],
            [
              99.9443219,
              19.2141661
            ],
            [
              99.9442813,
              19.2141676
            ],
            [
              99.9442194,
              19.2141869
            ],
            [
              99.9441783,
              19.2142056
            ],
            [
              99.9441075,
              19.2142568
            ],
            [
              99.943999,
              19.2144467
            ],
            [
              99.9439316,
              19.214488
            ],
            [
              99.9439074,
              19.2144954
            ],
            [
              99.9438675,
              19.2145012
            ],
            [
              99.9438367,
              19.2144976
            ],
            [
              99.9437796,
              19.2144653
            ],
            [
              99.9435175,
              19.2142948
            ],
            [
              99.9434706,
              19.2142779
            ],
            [
              99.943397,
              19.2142714
            ],
            [
              99.9433841,
              19.2143752
            ],
            [
              99.9433751,
              19.214409
            ],
            [
              99.9433668,
              19.2144283
            ],
            [
              99.9433408,
              19.2144656
            ],
            [
              99.9432665,
              19.2145108
            ],
            [
              99.9432129,
              19.2145559
            ],
            [
              99.9431747,
              19.2146632
            ],
            [
              99.9431517,
              19.214713
            ],
            [
              99.9430398,
              19.2148135
            ],
            [
              99.942914,
              19.2149137
            ],
            [
              99.9428592,
              19.2150093
            ],
            [
              99.9428122,
              19.2150763
            ],
            [
              99.942697,
              19.215213
            ],
            [
              99.9426331,
              19.2152519
            ],
            [
              99.942488,
              19.2152889
            ],
            [
              99.9424334,
              19.2153103
            ],
            [
              99.9423655,
              19.215345
            ],
            [
              99.9422545,
              19.2154864
            ],
            [
              99.9421862,
              19.2155868
            ],
            [
              99.9421162,
              19.2156274
            ],
            [
              99.94208,
              19.2156345
            ],
            [
              99.9419996,
              19.2156244
            ],
            [
              99.9419656,
              19.2156297
            ],
            [
              99.9419311,
              19.2156467
            ],
            [
              99.9418147,
              19.2157239
            ],
            [
              99.9417181,
              19.2158372
            ],
            [
              99.9416702,
              19.2159006
            ],
            [
              99.9416498,
              19.2159335
            ],
            [
              99.941617,
              19.2160011
            ],
            [
              99.941606,
              19.2160344
            ],
            [
              99.9415615,
              19.2162849
            ],
            [
              99.9415434,
              19.2165368
            ],
            [
              99.9415379,
              19.2165621
            ],
            [
              99.9415056,
              19.216647
            ],
            [
              99.9414218,
              19.2166683
            ],
            [
              99.9413807,
              19.2166623
            ],
            [
              99.9412811,
              19.2166397
            ],
            [
              99.9412249,
              19.2166348
            ],
            [
              99.9411036,
              19.2166345
            ],
            [
              99.9411108,
              19.2166906
            ],
            [
              99.941137,
              19.2167474
            ],
            [
              99.9411468,
              19.2167774
            ],
            [
              99.9411483,
              19.2168617
            ],
            [
              99.9410883,
              19.2168872
            ],
            [
              99.941066,
              19.2168867
            ],
            [
              99.9410384,
              19.2168776
            ],
            [
              99.9409371,
              19.2168271
            ],
            [
              99.9408731,
              19.2168241
            ],
            [
              99.9408532,
              19.2168274
            ],
            [
              99.9407856,
              19.2168541
            ],
            [
              99.940722,
              19.2169863
            ],
            [
              99.9406782,
              19.2170559
            ],
            [
              99.9406067,
              19.2170846
            ],
            [
              99.9404233,
              19.2170743
            ],
            [
              99.9403939,
              19.2170802
            ],
            [
              99.9403346,
              19.2171085
            ],
            [
              99.9402826,
              19.2171714
            ],
            [
              99.9402632,
              19.2172143
            ],
            [
              99.9402537,
              19.2173465
            ],
            [
              99.9402454,
              19.217403
            ],
            [
              99.9402307,
              19.2174664
            ],
            [
              99.9402172,
              19.2174999
            ],
            [
              99.940113,
              19.2176931
            ],
            [
              99.9400484,
              19.217858
            ],
            [
              99.9399653,
              19.2181155
            ],
            [
              99.939895,
              19.2182654
            ],
            [
              99.9398792,
              19.218328
            ],
            [
              99.9398737,
              19.2183996
            ],
            [
              99.9398648,
              19.2184553
            ],
            [
              99.939849,
              19.2184951
            ],
            [
              99.9398232,
              19.2185324
            ],
            [
              99.9395281,
              19.218726
            ],
            [
              99.9393638,
              19.2188541
            ],
            [
              99.9393563,
              19.2188896
            ],
            [
              99.9393683,
              19.2189309
            ],
            [
              99.9393963,
              19.2189917
            ],
            [
              99.9393966,
              19.2190209
            ],
            [
              99.9393843,
              19.2190501
            ],
            [
              99.939299,
              19.2191163
            ],
            [
              99.9391934,
              19.2191837
            ],
            [
              99.9391221,
              19.219295
            ],
            [
              99.9391029,
              19.2193356
            ],
            [
              99.9390892,
              19.2193966
            ],
            [
              99.9390751,
              19.2195232
            ],
            [
              99.9390376,
              19.219648
            ],
            [
              99.9390207,
              19.2196885
            ],
            [
              99.9389269,
              19.2198528
            ],
            [
              99.9388477,
              19.2199723
            ],
            [
              99.9388119,
              19.2200705
            ],
            [
              99.9388045,
              19.2201
            ],
            [
              99.9387943,
              19.2201846
            ],
            [
              99.93877,
              19.2204398
            ],
            [
              99.9387544,
              19.2205187
            ],
            [
              99.9387301,
              19.2205763
            ],
            [
              99.9386057,
              19.2206175
            ],
            [
              99.9384842,
              19.220627
            ],
            [
              99.9383977,
              19.2206509
            ],
            [
              99.938251,
              19.2208778
            ],
            [
              99.9382293,
              19.2209171
            ],
            [
              99.9381472,
              19.221093
            ],
            [
              99.9380232,
              19.2213136
            ],
            [
              99.9380115,
              19.2213412
            ],
            [
              99.9379987,
              19.2214112
            ],
            [
              99.9380181,
              19.2214796
            ],
            [
              99.9382694,
              19.2216293
            ],
            [
              99.9383333,
              19.2217131
            ],
            [
              99.938287,
              19.2217783
            ],
            [
              99.9382536,
              19.2217942
            ],
            [
              99.9381839,
              19.221807
            ],
            [
              99.9380931,
              19.2218105
            ],
            [
              99.93805,
              19.2218073
            ],
            [
              99.9380079,
              19.221792
            ],
            [
              99.9378647,
              19.2217136
            ],
            [
              99.9378094,
              19.2216936
            ],
            [
              99.9377856,
              19.2216885
            ],
            [
              99.9376977,
              19.2216857
            ],
            [
              99.9373384,
              19.2217306
            ],
            [
              99.9372418,
              19.22178
            ],
            [
              99.9372222,
              19.2218135
            ],
            [
              99.9372149,
              19.2218452
            ],
            [
              99.937212,
              19.221886
            ],
            [
              99.9372589,
              19.221978
            ],
            [
              99.9374488,
              19.2220736
            ],
            [
              99.9376054,
              19.2221352
            ],
            [
              99.937656,
              19.2221591
            ],
            [
              99.937695,
              19.2221894
            ],
            [
              99.9377411,
              19.222262
            ],
            [
              99.9376957,
              19.2223116
            ],
            [
              99.9376651,
              19.2223242
            ],
            [
              99.9375767,
              19.222348
            ],
            [
              99.9375175,
              19.2223714
            ],
            [
              99.9374624,
              19.2223987
            ],
            [
              99.9373586,
              19.2224688
            ],
            [
              99.9373403,
              19.2225355
            ],
            [
              99.9373417,
              19.2225787
            ],
            [
              99.9373475,
              19.2226045
            ],
            [
              99.9373652,
              19.2226448
            ],
            [
              99.93745,
              19.2227504
            ],
            [
              99.9374777,
              19.2228021
            ],
            [
              99.9374896,
              19.2228345
            ],
            [
              99.9374856,
              19.2229008
            ],
            [
              99.9374587,
              19.2229413
            ],
            [
              99.9374255,
              19.2229753
            ],
            [
              99.937398,
              19.2230099
            ],
            [
              99.9373878,
              19.2230286
            ],
            [
              99.9373723,
              19.2231266
            ],
            [
              99.9373452,
              19.2231858
            ],
            [
              99.9372891,
              19.2232348
            ],
            [
              99.9371754,
              19.2232719
            ],
            [
              99.9370948,
              19.2232832
            ],
            [
              99.9370409,
              19.2232726
            ],
            [
              99.9369791,
              19.2232206
            ],
            [
              99.9369172,
              19.2231418
            ],
            [
              99.936871,
              19.2231189
            ],
            [
              99.9368326,
              19.2231155
            ],
            [
              99.9367866,
              19.2231445
            ],
            [
              99.9367235,
              19.2232337
            ],
            [
              99.9367064,
              19.2232732
            ],
            [
              99.9366743,
              19.2233926
            ],
            [
              99.9366543,
              19.2234324
            ],
            [
              99.9364642,
              19.2236122
            ],
            [
              99.936416,
              19.2237186
            ],
            [
              99.936402,
              19.2237805
            ],
            [
              99.9364037,
              19.2238254
            ],
            [
              99.936441,
              19.2239662
            ],
            [
              99.9364556,
              19.2240372
            ],
            [
              99.9364557,
              19.2240796
            ],
            [
              99.9364318,
              19.2241334
            ],
            [
              99.9363642,
              19.2241673
            ],
            [
              99.936328,
              19.2241726
            ],
            [
              99.9362749,
              19.2241715
            ],
            [
              99.9361733,
              19.224156
            ],
            [
              99.9360609,
              19.2241545
            ],
            [
              99.9360055,
              19.2241611
            ],
            [
              99.9359126,
              19.224186
            ],
            [
              99.9359136,
              19.2242494
            ],
            [
              99.9359311,
              19.224289
            ],
            [
              99.9359896,
              19.2243976
            ],
            [
              99.9359974,
              19.2244212
            ],
            [
              99.9359943,
              19.224453
            ],
            [
              99.9359842,
              19.2244822
            ],
            [
              99.9359467,
              19.2245354
            ],
            [
              99.93593,
              19.2245722
            ],
            [
              99.9359319,
              19.2246945
            ],
            [
              99.9359194,
              19.2247446
            ],
            [
              99.9358583,
              19.2247647
            ],
            [
              99.9357813,
              19.2247452
            ],
            [
              99.9356822,
              19.2247043
            ],
            [
              99.9356305,
              19.2246869
            ],
            [
              99.9356141,
              19.2246851
            ],
            [
              99.9355411,
              19.2247027
            ],
            [
              99.9354625,
              19.2247458
            ],
            [
              99.9354299,
              19.2248013
            ],
            [
              99.9353714,
              19.2249385
            ],
            [
              99.9352963,
              19.2250854
            ],
            [
              99.935254,
              19.2251509
            ],
            [
              99.9352003,
              19.2252208
            ],
            [
              99.9351662,
              19.2252813
            ],
            [
              99.935139,
              19.2253212
            ],
            [
              99.9349722,
              19.2254771
            ],
            [
              99.9349526,
              19.2255077
            ],
            [
              99.9348591,
              19.2257997
            ],
            [
              99.9348239,
              19.2258466
            ],
            [
              99.9347904,
              19.2258715
            ],
            [
              99.9347454,
              19.2258768
            ],
            [
              99.9347095,
              19.2258661
            ],
            [
              99.9346734,
              19.2258365
            ],
            [
              99.9346321,
              19.2258143
            ],
            [
              99.9346038,
              19.2258144
            ],
            [
              99.9345901,
              19.2258232
            ],
            [
              99.9345732,
              19.2258396
            ],
            [
              99.9344968,
              19.2260281
            ],
            [
              99.9344586,
              19.2260915
            ],
            [
              99.9343914,
              19.226112
            ],
            [
              99.9343516,
              19.2261141
            ],
            [
              99.9343106,
              19.2261246
            ],
            [
              99.9342418,
              19.2261679
            ],
            [
              99.9341462,
              19.226287
            ],
            [
              99.9341227,
              19.226311
            ],
            [
              99.9340953,
              19.2263297
            ],
            [
              99.9339981,
              19.2264335
            ],
            [
              99.9339357,
              19.2265186
            ],
            [
              99.9336708,
              19.2266535
            ],
            [
              99.9334032,
              19.2268017
            ],
            [
              99.9333458,
              19.2268836
            ],
            [
              99.9333308,
              19.2269313
            ],
            [
              99.9333351,
              19.2270096
            ],
            [
              99.9333579,
              19.2270503
            ],
            [
              99.9335277,
              19.2271754
            ],
            [
              99.9337097,
              19.2272985
            ],
            [
              99.9337283,
              19.2273275
            ],
            [
              99.9337426,
              19.2273954
            ],
            [
              99.9337289,
              19.2274362
            ],
            [
              99.9336935,
              19.2274788
            ],
            [
              99.9336479,
              19.2275214
            ],
            [
              99.9336336,
              19.227548
            ],
            [
              99.9336259,
              19.2275798
            ],
            [
              99.9336236,
              19.2276143
            ],
            [
              99.9336372,
              19.2276682
            ],
            [
              99.9336978,
              19.2278207
            ],
            [
              99.933706,
              19.2278604
            ],
            [
              99.9337062,
              19.2279452
            ],
            [
              99.9336839,
              19.2281685
            ],
            [
              99.9336781,
              19.2282931
            ],
            [
              99.9336802,
              19.2283424
            ],
            [
              99.933673,
              19.228428
            ],
            [
              99.9336576,
              19.2285079
            ],
            [
              99.9334615,
              19.2286114
            ],
            [
              99.9333989,
              19.2286341
            ],
            [
              99.9333318,
              19.2286429
            ],
            [
              99.9332378,
              19.228641
            ],
            [
              99.9331257,
              19.2286246
            ],
            [
              99.9330405,
              19.2286001
            ],
            [
              99.9329462,
              19.2285629
            ],
            [
              99.9328925,
              19.2285568
            ],
            [
              99.9328298,
              19.2285598
            ],
            [
              99.9326946,
              19.2286259
            ],
            [
              99.932681,
              19.2286796
            ],
            [
              99.93267,
              19.2289292
            ],
            [
              99.9326659,
              19.2289717
            ],
            [
              99.9326471,
              19.2290414
            ],
            [
              99.9326334,
              19.2290599
            ],
            [
              99.9325596,
              19.2290881
            ],
            [
              99.9325059,
              19.229084
            ],
            [
              99.9323982,
              19.2290451
            ],
            [
              99.9323444,
              19.2290333
            ],
            [
              99.9322682,
              19.229031
            ],
            [
              99.9321832,
              19.229038
            ],
            [
              99.9320712,
              19.2290219
            ],
            [
              99.931977,
              19.2289922
            ],
            [
              99.9318153,
              19.2289037
            ],
            [
              99.9317525,
              19.2288825
            ],
            [
              99.9317166,
              19.2288746
            ],
            [
              99.9316763,
              19.2288707
            ],
            [
              99.9316405,
              19.2288749
            ],
            [
              99.9316047,
              19.2288835
            ],
            [
              99.9315769,
              19.2288959
            ],
            [
              99.931534,
              19.2288819
            ],
            [
              99.9314927,
              19.228855
            ],
            [
              99.9313939,
              19.2287472
            ],
            [
              99.9313671,
              19.2287249
            ],
            [
              99.9313575,
              19.2287169
            ],
            [
              99.931324,
              19.2287024
            ],
            [
              99.931286,
              19.2287026
            ],
            [
              99.9312322,
              19.228724
            ],
            [
              99.9311901,
              19.2287541
            ],
            [
              99.9311751,
              19.2287649
            ],
            [
              99.9311472,
              19.2288136
            ],
            [
              99.9310978,
              19.2289306
            ],
            [
              99.9310107,
              19.2289858
            ],
            [
              99.9309408,
              19.2289918
            ],
            [
              99.9308619,
              19.2289813
            ],
            [
              99.9308126,
              19.2289681
            ],
            [
              99.9307677,
              19.2289509
            ],
            [
              99.9306913,
              19.2289072
            ],
            [
              99.9306426,
              19.2288246
            ],
            [
              99.9306212,
              19.2287737
            ],
            [
              99.9306187,
              19.2287354
            ],
            [
              99.930631,
              19.2286886
            ],
            [
              99.9306518,
              19.2286502
            ],
            [
              99.9306837,
              19.228616
            ],
            [
              99.930712,
              19.2285691
            ],
            [
              99.9307091,
              19.2285138
            ],
            [
              99.9306978,
              19.2284628
            ],
            [
              99.9306459,
              19.2283801
            ],
            [
              99.9306094,
              19.2283664
            ],
            [
              99.9304926,
              19.2283817
            ],
            [
              99.9304007,
              19.2284273
            ],
            [
              99.9302977,
              19.2284649
            ],
            [
              99.9302281,
              19.2285103
            ],
            [
              99.9301809,
              19.2285583
            ],
            [
              99.9301505,
              19.2286035
            ],
            [
              99.9301144,
              19.2286435
            ],
            [
              99.9300729,
              19.2286994
            ],
            [
              99.9300481,
              19.2287605
            ],
            [
              99.9300289,
              19.2288216
            ],
            [
              99.9299819,
              19.2288987
            ],
            [
              99.9299457,
              19.2289691
            ],
            [
              99.9299019,
              19.2291296
            ],
            [
              99.9298435,
              19.2293326
            ],
            [
              99.9297794,
              19.2294083
            ],
            [
              99.9296855,
              19.2294654
            ],
            [
              99.9294332,
              19.2296033
            ],
            [
              99.929151,
              19.2297273
            ],
            [
              99.9290474,
              19.2298221
            ],
            [
              99.9290181,
              19.2299165
            ],
            [
              99.9290286,
              19.2300108
            ],
            [
              99.9290439,
              19.2300908
            ],
            [
              99.9290144,
              19.2301334
            ],
            [
              99.9289552,
              19.230195
            ],
            [
              99.9288364,
              19.2302521
            ],
            [
              99.9286037,
              19.2303523
            ],
            [
              99.9285692,
              19.2303902
            ],
            [
              99.9285695,
              19.230442
            ],
            [
              99.9285994,
              19.2304702
            ],
            [
              99.9286592,
              19.2305123
            ],
            [
              99.928838,
              19.2305302
            ],
            [
              99.9289968,
              19.2305436
            ],
            [
              99.9290764,
              19.2305667
            ],
            [
              99.9291561,
              19.2306276
            ],
            [
              99.9291863,
              19.2307029
            ],
            [
              99.9292017,
              19.2307578
            ],
            [
              99.9292172,
              19.2311462
            ],
            [
              99.9291845,
              19.2312732
            ],
            [
              99.9291108,
              19.2314009
            ],
            [
              99.929055,
              19.2315109
            ],
            [
              99.9290223,
              19.2316463
            ],
            [
              99.9290174,
              19.2317815
            ],
            [
              99.9290071,
              19.23193
            ],
            [
              99.9289717,
              19.2320919
            ],
            [
              99.9289329,
              19.2321911
            ],
            [
              99.928859,
              19.2323133
            ],
            [
              99.9286316,
              19.2327222
            ],
            [
              99.9286129,
              19.2328149
            ],
            [
              99.9286025,
              19.2329502
            ],
            [
              99.9286146,
              19.2331198
            ],
            [
              99.9286322,
              19.2332656
            ],
            [
              99.9286299,
              19.2333557
            ],
            [
              99.9285857,
              19.2334328
            ],
            [
              99.9285217,
              19.2334782
            ],
            [
              99.9284437,
              19.2334972
            ],
            [
              99.9284162,
              19.2334965
            ],
            [
              99.9283572,
              19.233495
            ],
            [
              99.9282255,
              19.2334214
            ],
            [
              99.9281697,
              19.2334111
            ],
            [
              99.9281194,
              19.233414
            ],
            [
              99.9280666,
              19.233454
            ],
            [
              99.9280393,
              19.2335523
            ],
            [
              99.928037,
              19.2336544
            ],
            [
              99.9280674,
              19.2337638
            ],
            [
              99.9281312,
              19.2338519
            ],
            [
              99.9282623,
              19.2340103
            ],
            [
              99.9282963,
              19.2340914
            ],
            [
              99.9283043,
              19.2341833
            ],
            [
              99.9282974,
              19.2342788
            ],
            [
              99.9282941,
              19.234353
            ],
            [
              99.9283092,
              19.2344024
            ],
            [
              99.9283316,
              19.2344699
            ],
            [
              99.928374,
              19.234596
            ],
            [
              99.9285034,
              19.2348916
            ],
            [
              99.9285771,
              19.2349648
            ],
            [
              99.928638,
              19.2350003
            ],
            [
              99.9287471,
              19.2350395
            ],
            [
              99.9288438,
              19.2351047
            ],
            [
              99.9289363,
              19.2351877
            ],
            [
              99.9290628,
              19.2353322
            ],
            [
              99.9290987,
              19.2354017
            ],
            [
              99.9291138,
              19.2354712
            ],
            [
              99.9291249,
              19.2355904
            ],
            [
              99.9291363,
              19.2357514
            ],
            [
              99.9291288,
              19.2359086
            ],
            [
              99.9291025,
              19.2360638
            ],
            [
              99.9290695,
              19.2361594
            ],
            [
              99.9290739,
              19.2361872
            ],
            [
              99.9290866,
              19.236213
            ],
            [
              99.9292043,
              19.2363182
            ],
            [
              99.9292874,
              19.2363882
            ],
            [
              99.9292991,
              19.2364396
            ],
            [
              99.9292909,
              19.2364993
            ],
            [
              99.929169,
              19.2366353
            ],
            [
              99.9291523,
              19.2367004
            ],
            [
              99.9291755,
              19.2367625
            ],
            [
              99.9291872,
              19.2368193
            ],
            [
              99.9291819,
              19.2368952
            ],
            [
              99.9291709,
              19.236963
            ],
            [
              99.9291428,
              19.2370389
            ],
            [
              99.9291182,
              19.2370982
            ],
            [
              99.9291193,
              19.237124
            ],
            [
              99.9291292,
              19.2371609
            ],
            [
              99.9291465,
              19.2371933
            ],
            [
              99.9291793,
              19.2372368
            ],
            [
              99.929222,
              19.2372692
            ],
            [
              99.929304,
              19.2373035
            ],
            [
              99.9294594,
              19.2373942
            ],
            [
              99.9295821,
              19.2374152
            ],
            [
              99.9296963,
              19.2374363
            ],
            [
              99.929802,
              19.2374791
            ],
            [
              99.9298734,
              19.2375085
            ],
            [
              99.9298967,
              19.2375815
            ],
            [
              99.9298895,
              19.2378226
            ],
            [
              99.9298793,
              19.2380474
            ],
            [
              99.92986,
              19.2381667
            ],
            [
              99.9298318,
              19.2382237
            ],
            [
              99.9297893,
              19.23827
            ],
            [
              99.9296783,
              19.238303
            ],
            [
              99.9295216,
              19.2383146
            ],
            [
              99.9294505,
              19.2383529
            ],
            [
              99.9294167,
              19.2384262
            ],
            [
              99.9293861,
              19.2385509
            ],
            [
              99.9293865,
              19.2386268
            ],
            [
              99.9294126,
              19.2387133
            ],
            [
              99.9294645,
              19.2388105
            ],
            [
              99.9295419,
              19.2388833
            ],
            [
              99.9296963,
              19.2389556
            ],
            [
              99.9297393,
              19.2390122
            ],
            [
              99.9297569,
              19.2390907
            ],
            [
              99.9298175,
              19.2392204
            ],
            [
              99.9298837,
              19.2393338
            ],
            [
              99.9299282,
              19.2393829
            ],
            [
              99.9300584,
              19.2394764
            ],
            [
              99.93007,
              19.2395062
            ],
            [
              99.9300589,
              19.2395523
            ],
            [
              99.9299922,
              19.2396658
            ],
            [
              99.9292818,
              19.2406439
            ],
            [
              99.9290916,
              19.2408921
            ],
            [
              99.9287118,
              19.2413876
            ],
            [
              99.92827,
              19.2418015
            ],
            [
              99.9281771,
              19.2418713
            ],
            [
              99.9280219,
              19.2419879
            ],
            [
              99.9277432,
              19.2420636
            ],
            [
              99.927481,
              19.2421347
            ],
            [
              99.9273515,
              19.2421564
            ],
            [
              99.9270373,
              19.242209
            ],
            [
              99.9262056,
              19.2423271
            ],
            [
              99.9258426,
              19.2423786
            ],
            [
              99.9256842,
              19.2424011
            ],
            [
              99.9255438,
              19.2424841
            ],
            [
              99.9255014,
              19.2426386
            ],
            [
              99.9254129,
              19.24294
            ],
            [
              99.9253514,
              19.2430998
            ],
            [
              99.9253251,
              19.2431683
            ],
            [
              99.9252707,
              19.2432532
            ],
            [
              99.9251819,
              19.2432927
            ],
            [
              99.9250747,
              19.2433053
            ],
            [
              99.9240315,
              19.2434286
            ],
            [
              99.9238798,
              19.2434575
            ],
            [
              99.923322,
              19.2435637
            ],
            [
              99.9232238,
              19.2435824
            ],
            [
              99.9226486,
              19.2436439
            ],
            [
              99.9221634,
              19.2436676
            ],
            [
              99.9219708,
              19.2436771
            ],
            [
              99.9212791,
              19.2438029
            ],
            [
              99.9204012,
              19.2439351
            ],
            [
              99.9196802,
              19.2440859
            ],
            [
              99.9195578,
              19.2441475
            ],
            [
              99.9195196,
              19.2441909
            ],
            [
              99.919494,
              19.24422
            ],
            [
              99.919465,
              19.2442757
            ],
            [
              99.9194566,
              19.244334
            ],
            [
              99.9194628,
              19.2444006
            ],
            [
              99.9194605,
              19.2445144
            ],
            [
              99.9194347,
              19.2445923
            ],
            [
              99.9193505,
              19.2446898
            ],
            [
              99.9192517,
              19.2448014
            ],
            [
              99.9191789,
              19.2448462
            ],
            [
              99.9189952,
              19.244922
            ],
            [
              99.9189626,
              19.244951
            ],
            [
              99.9188338,
              19.2452055
            ],
            [
              99.9186777,
              19.2454666
            ],
            [
              99.9184812,
              19.2458776
            ],
            [
              99.9184528,
              19.2459364
            ],
            [
              99.9182988,
              19.2462547
            ],
            [
              99.9176137,
              19.2472734
            ],
            [
              99.916698,
              19.2482241
            ],
            [
              99.9131522,
              19.2511775
            ],
            [
              99.9118633,
              19.2475557
            ],
            [
              99.905354,
              19.2298974
            ],
            [
              99.8871,
              19.1811
            ],
            [
              99.888,
              19.1811
            ],
            [
              99.9095302,
              19.1698192
            ],
            [
              99.9193,
              19.1647
            ]
          ]
        ]
      },
      "id": "relation/20420116"
    },
    {
      "type": "Feature",
      "properties": {
        "@id": "node/8190340245",
        "@relations": [
          {
            "role": "admin_centre",
            "rel": 20420116,
            "reltags": {
              "admin_level": "7",
              "boundary": "administrative",
              "name": "เทศบาลตำบลท่าวังทอง",
              "name:en": "Tha Wang Thong Subdistrict Municipality",
              "name:th": "เทศบาลตำบลท่าวังทอง",
              "type": "boundary"
            }
          }
        ]
      },
      "geometry": {
        "type": "Point",
        "coordinates": [
          99.9315004,
          19.1907468
        ]
      },
      "id": "node/8190340245"
    }
  ]
}